INTELSAT 602 (IS-602)   
1 20315U 89087A   13052.87021946 -.00000194  00000-0  10000-3 0  6458
2 20315   9.9000  49.3043 0004489  31.9502 328.1942  0.99006567 83191
INTELSAT 603 (IS-603)   
1 20523U 90021A   13054.32697436 -.00000131  00000-0  10000-3 0  2259
2 20523   9.3692  51.0274 0000721 309.8849 258.3355  1.00129665 76973
SBS-6                   
1 20872U 90091A   13053.72028191 -.00000119  00000-0  10000-3 0  6511
2 20872   4.9460  64.1969 0008505 359.7607   0.4762  0.98994016 70118
INTELSAT 605 (IS-605)   
1 21653U 91055A   13053.40728583 -.00000256  00000-0  10000-3 0  3785
2 21653   7.5225  56.9242 0001371 322.5889  37.5541  0.99325274 78671
INTELSAT 601 (IS-601)   
1 21765U 91075A   13052.93071386 -.00000199  00000-0  10000-3 0  4754
2 21765   7.4952  55.8054 0002750 264.0353  96.0786  0.99588512 77887
INTELSAT 701 (IS-701)   
1 22871U 93066A   13051.83242734 -.00000151  00000-0  10000-3 0   844
2 22871   1.0409  77.0200 0003994 255.4572 275.0267  1.00259320 70689
INTELSAT 702 (IS-702)   
1 23124U 94034A   13051.20510351  .00000145  00000-0  10000-3 0  8880
2 23124   1.3888  75.9819 0002787 259.1865 281.9324  1.00274450 82597
INTELSAT 2 (IS-2)       
1 23175U 94040A   13052.52548947 -.00000037  00000-0  00000+0 0  2476
2 23175   3.6900  70.5897 0007829 298.0214  62.1621  0.99190511 67440
INTELSAT 704 (IS-704)   
1 23461U 95001A   13053.51875338 -.00000028  00000-0  10000-3 0  5949
2 23461   3.3011  67.8907 0003254 339.2206  21.0961  0.99177975 66254
INTELSAT 705 (IS-705)   
1 23528U 95013A   13052.69262370 -.00000034  00000-0  00000+0 0  5526
2 23528   2.8755  69.1640 0019578 343.0650  17.2055  0.98974029 65476
INTELSAT 706 (IS-706)   
1 23571U 95023A   13051.83242734 -.00000148  00000-0  10000-3 0  7121
2 23571   1.3233  75.7036 0002484 251.6374 280.2247  1.00272012 65052
INTELSAT 3R (IS-3R)     
1 23764U 96002A   13054.02646498 -.00000018  00000-0  10000-3 0  3797
2 23764   3.0564  68.2298 0009737 175.1137 185.2696  0.99084840 62623
PAKSAT 1 (ANATOLIA 1)   
1 23779U 96006A   13053.46350334 -.00000308  00000-0  10000-3 0  9131
2 23779   1.0866  77.5248 0005043  21.1753 339.6643  0.99593213 62402
INTELSAT 707 (IS-707)   
1 23816U 96015A   13052.45781031 -.00000021  00000-0  10000-3 0  5670
2 23816   0.2801  76.0213 0070206 243.5035  39.9265  0.98480586 62065
GALAXY 9 (G-9)          
1 23877U 96033A   13053.26566973 -.00000108  00000-0  10000-3 0  6861
2 23877   3.9563  66.0872 0009604  27.8356 332.4905  0.99545059 61294
INTELSAT 709 (IS-709)   
1 23915U 96035A   13051.67641200 -.00000257  00000-0  10000-3 0  7200
2 23915   0.7476  77.5648 0005738 156.6035 125.7568  0.99182469 61146
INTELSAT 26 (IS-26)     
1 24732U 97007A   13052.07561685  .00000101  00000-0  10000-3 0  3473
2 24732   4.6340  63.8528 0003473 264.5166 260.2677  1.00274502 58550
INTELSAT 801 (IS-801)   
1 24742U 97009A   13051.34600676 -.00000225  00000-0  10000-3 0  2656
2 24742   3.8618  66.4621 0004165 272.4173 266.6054  1.00271720 58556
GALAXY 25 (G-25)        
1 24812U 97026A   13054.47439237 -.00000171  00000-0  00000+0 0  5684
2 24812   0.0051 158.3660 0003546 195.2907 237.5255  1.00272249 57711
INTELSAT 802 (IS-802)   
1 24846U 97031A   13052.74781652 -.00000151  00000-0  10000-3 0  5320
2 24846   1.8731  71.7317 0025417 183.9320 176.5508  0.98110105 57220
INTELSAT 5 (IS-5)       
1 24916U 97046A   13054.76745110 -.00000355  00000-0  10000-3 0  4849
2 24916   0.3435  79.7335 0003604 252.1761 211.4261  1.00112718 56885
INTELSAT 805 (IS-805)   
1 25371U 98037A   13053.34755265 -.00000295  00000-0  10000-3 0   749
2 25371   0.0487 273.9474 0003361  70.6027 237.4668  1.00272852 53809
INTELSAT 7 (IS-7)       
1 25473U 98052A   13054.88769767 -.00000035  00000-0  00000+0 0  5642
2 25473   0.0217 263.0396 0003122  61.9562 217.1317  1.00273302 52905
INTELSAT 8 (IS-8)       
1 25522U 98065A   13054.49106438 -.00000040  00000-0  10000-3 0  3300
2 25522   0.0562 260.5275 0003428  95.8693 142.8845  1.00272233 52475
GALAXY 26 (G-26)        
1 25626U 99005A   13052.68797067  .00000105  00000-0  10000-3 0  1346
2 25626   0.0356 298.5251 0003501  21.3296 129.5431  1.00273515 51376
INSAT-2E (APR-1)        
1 25666U 99016A   13053.78865335 -.00000147  00000-0  10000-3 0  2728
2 25666   2.2318  71.8581 0004598 141.6604 218.8406  0.99661296 50979
GALAXY 27 (G-27)        
1 25922U 99052A   13051.07968003  .00000126  00000-0  10000-3 0  1858
2 25922   0.0243  54.6472 0002475 283.4332 245.8842  1.00275741 49106
GALAXY 11 (G-11)        
1 26038U 99071A   13054.38666382 -.00000294  00000-0  10000-3 0  5424
2 26038   0.0175  62.5107 0000318 229.3636 305.0872  1.00271383 48358
GALAXY 4R (G-4R)        
1 26298U 00020A   13052.14036265  .00000110  00000-0  10000-3 0  3043
2 26298   5.7913  60.7786 0002451  39.7973 320.3974  0.99833162 47109
INTELSAT 9 (IS-9)       
1 26451U 00043A   13053.34784233 -.00000278  00000-0  10000-3 0  9768
2 26451   0.3252  81.0477 0001780 287.7975 225.6582  1.00270670 46081
INTELSAT 12 (IS-12)     
1 26590U 00068A   13053.07117626  .00000127  00000-0  10000-3 0  9767
2 26590   0.0178  76.7203 0003645 253.2083 252.8137  1.00274156 45144
INTELSAT 1R (IS-1R)     
1 26608U 00072A   13052.35185980 -.00000292  00000-0  10000-3 0  5995
2 26608   0.0111 300.3424 0001444 329.3574 318.3898  1.00273022 44981
INTELSAT 10 (IS-10)     
1 26766U 01019A   13052.88283124  .00000117  00000-0  10000-3 0  1967
2 26766   0.0138 101.4847 0001953 246.5236 169.2489  1.00274433 43169
INTELSAT 901 (IS-901)   
1 26824U 01024A   13054.18787506 -.00000150  00000-0  10000-3 0   121
2 26824   0.0115  67.7722 0003364 267.7779 227.3080  1.00272368 42921
INTELSAT 902 (IS-902)   
1 26900U 01039A   13053.83524140  .00000023  00000-0  10000-3 0   517
2 26900   0.0261 337.9896 0003345 348.2587 189.3118  1.00273600 42090
INTELSAT 904 (IS-904)   
1 27380U 02007A   13054.63446168  .00000040  00000-0  10000-3 0   797
2 27380   0.0191  13.6881 0003304 321.2207 107.1456  1.00273088 40352
INTELSAT 903 (IS-903)   
1 27403U 02016A   13051.42290072 -.00000248  00000-0  10000-3 0  7897
2 27403   0.0090  80.9197 0002894 243.0518 304.2466  1.00271569 39971
INTELSAT 905 (IS-905)   
1 27438U 02027A   13053.06948396 -.00000194  00000-0  00000+0 0  6241
2 27438   0.0553 267.8943 0002943  49.0484 195.6834  1.00272699 39313
GALAXY 3C (G-3C)        
1 27445U 02030A   13053.65040221 -.00000160  00000-0  10000-3 0  7416
2 27445   0.0022  32.2668 0000474 189.2817  70.2244  1.00271908 39195
INTELSAT 906 (IS-906)   
1 27513U 02041A   13053.89816521  .00000006  00000-0  10000-3 0  8244
2 27513   0.0216  22.6750 0002975 323.1486 194.5854  1.00272832 38373
INTELSAT 907 (IS-907)   
1 27683U 03007A   13054.15942265 -.00000211  00000-0  10000-3 0  3918
2 27683   0.0133  32.0021 0003076 298.4253 212.6399  1.00271136 36734
GALAXY 12 (G-12)        
1 27715U 03013B   13053.20346241  .00000050  00000-0  10000-3 0  6685
2 27715   0.0389 284.6169 0001799  29.7101 142.1471  1.00272760 36246
GALAXY 23 (G-23)        
1 27854U 03034A   13054.42139181  .00000004  00000-0  10000-3 0  6634
2 27854   0.0268  48.0898 0002962 271.3941 224.6751  1.00273679 35018
GALAXY 13 (HORIZONS-1)  
1 27954U 03044A   13054.34135510  .00000039  00000-0  00000+0 0  5169
2 27954   0.0137 129.4331 0000853 318.2767  61.5292  1.00273505 34491
INTELSAT 10-02          
1 28358U 04022A   13050.20258586 -.00000021  00000-0  10000-3 0  4789
2 28358   0.0157 136.4756 0000886 144.9338 299.8439  1.00273499 31831
GALAXY 28 (G-28)        
1 28702U 05022A   13054.47520450 -.00000194  00000-0  10000-3 0  4251
2 28702   0.0279  85.0594 0001849  91.8543  58.6466  1.00271606 28145
GALAXY 14 (G-14)        
1 28790U 05030A   13053.22089073  .00000027  00000-0  10000-3 0  4748
2 28790   0.0519 287.3222 0002128  48.3502 131.1043  1.00274388 27548
GALAXY 15 (G-15)        
1 28884U 05041A   13051.44865469  .00000069  00000-0  10000-3 0  4529
2 28884   0.0493 275.3189 0001320  45.5224 218.1686  1.00271494 26953
GALAXY 16 (G-16)        
1 29236U 06023A   13053.34644731 -.00000136  00000-0  10000-3 0  3985
2 29236   0.0151 223.8618 0003084 115.7824 198.4452  1.00271856 24508
GALAXY 17 (G-17)        
1 31307U 07016B   13053.32092041 -.00000184  00000-0  00000+0 0   984
2 31307   0.0097 116.1676 0003305 213.1816 207.5561  1.00273151 21316
INTELSAT 11 (IS-11)     
1 32253U 07044B   13051.35621649 -.00000278  00000-0  10000-3 0  8111
2 32253   0.0395 251.0475 0003078  78.3024 266.2985  1.00272216 19740
HORIZONS-2              
1 32388U 07063B   13054.86017694 -.00000191  00000-0  10000-3 0  9383
2 32388   0.0232  28.9572 0002719 307.5582 211.8687  1.00272704 19135
GALAXY 18 (G-18)        
1 32951U 08024A   13054.42189959  .00000016  00000-0  10000-3 0  7588
2 32951   0.0238 140.3102 0003046 192.2651 209.7600  1.00273129 17462
INTELSAT 25 (IS-25)     
1 33153U 08034A   13050.34100388 -.00000235  00000-0  10000-3 0  8024
2 33153   0.0432 304.5722 0002628 347.1954 308.8965  1.00267942 16951
INTELSAT 14 (IS-14)     
1 36097U 09064A   13052.35197414 -.00000283  00000-0  10000-3 0  5005
2 36097   0.0090  52.1154 0001969 327.3352 213.6277  1.00268889 11938
INTELSAT 15 (IS-15)     
1 36106U 09067A   13054.01409610 -.00000194  00000-0  10000-3 0  7180
2 36106   0.0269   3.5656 0002619 341.9802 257.7151  1.00271420 11844
INTELSAT 16 (IS-16)     
1 36397U 10006A   13053.34749167 -.00000294  00000-0  10000-3 0  6142
2 36397   0.0214  75.0980 0002616 245.2587 259.0227  1.00270894 11082
INTELSAT 17 (IS-17)     
1 37238U 10065B   13053.83535574 -.00000011  00000-0  10000-3 0  4056
2 37238   0.0094 108.1040 0003093 226.1273 185.3666  1.00272673  8270
INTELSAT NEW DAWN       
1 37392U 11016A   13051.77224338  .00000146  00000-0  10000-3 0  3943
2 37392   0.0179 229.3717 0000953 113.3085 118.9770  1.00275132  6765
INTELSAT 18 (IS-18)     
1 37834U 11056A   13053.48485075  .00000044  00000-0  10000-3 0  2806
2 37834   0.0218  73.9940 0002319 276.5185 156.5628  1.00273543  5204
INTELSAT 22 (IS-22)     
1 38098U 12011A   13052.60327699 -.00000068  00000-0  10000-3 0  1762
2 38098   0.0247  69.4697 0002354 235.1327 136.3304  1.00272784  3386
INTELSAT 19 (IS-19)     
1 38356U 12030A   13054.49208421 -.00000065  00000-0  10000-3 0  1789
2 38356   0.0138 299.9232 0002598  45.9687 150.7854  1.00272900  2797
INTELSAT 20 (IS-20)     
1 38740U 12043A   13054.88769770 -.00000034  00000-0  10000-3 0  1586
2 38740   0.0371  88.2877 0001736 218.5210 235.1924  1.00273562  2083
INTELSAT 21 (IS-21)     
1 38749U 12045A   13053.07666499 -.00000294  00000-0  10000-3 0  1286
2 38749   0.0201  47.4327 0001987 334.8244  99.4523  1.00270839  1931
INTELSAT 23 (IS-23)     
1 38867U 12057A   13054.39927741 -.00000294  00000-0  10000-3 0   780
2 38867   0.0280   3.9040 0002813  13.6751 226.5780  1.00271178  1364
